<?xml version="1.0" encoding="UTF-8"?><kml xmlns="http://www.opengis.net/kml/2.2"><Document><name>VGP Sibiu C-D-E rev1 - foraje si raze 30 m</name>
<Style id="ex"><IconStyle><color>ffff0000</color><scale>0.7</scale></IconStyle><LabelStyle><scale>0.6</scale></LabelStyle></Style>
<Style id="f"><IconStyle><color>ff0000ff</color><scale>1.1</scale></IconStyle></Style>
<Style id="h"><LineStyle><color>ff0000ff</color><width>2</width></LineStyle><PolyStyle><color>200000ff</color></PolyStyle></Style>
<Style id="c30"><LineStyle><color>ff00ffff</color><width>2</width></LineStyle><PolyStyle><color>3300ffff</color></PolyStyle></Style>
<Folder><name>Hale layout 28.09.2026</name>
<Placemark><name>Hala C</name><styleUrl>#h</styleUrl><Polygon><outerBoundaryIs><LinearRing><coordinates>24.145347,45.827213,0 24.144952,45.826050,0 24.146466,45.825799,0 24.146860,45.826962,0 24.145347,45.827213,0</coordinates></LinearRing></outerBoundaryIs></Polygon></Placemark>
<Placemark><name>Hala E</name><styleUrl>#h</styleUrl><Polygon><outerBoundaryIs><LinearRing><coordinates>24.146538,45.828573,0 24.144216,45.828696,0 24.144133,45.827934,0 24.146455,45.827811,0 24.146538,45.828573,0</coordinates></LinearRing></outerBoundaryIs></Polygon></Placemark>
<Placemark><name>Hala D</name><styleUrl>#h</styleUrl><Polygon><outerBoundaryIs><LinearRing><coordinates>24.143115,45.828998,0 24.142811,45.826191,0 24.142816,45.826191,0 24.144053,45.826126,0 24.144206,45.827533,0 24.143744,45.827557,0 24.143896,45.828957,0 24.143115,45.828998,0</coordinates></LinearRing></outerBoundaryIs></Polygon></Placemark>
<Placemark><name>Hala A1</name><styleUrl>#h</styleUrl><Polygon><outerBoundaryIs><LinearRing><coordinates>24.150504,45.826040,0 24.150197,45.825137,0 24.151000,45.825004,0 24.151307,45.825907,0 24.150504,45.826040,0</coordinates></LinearRing></outerBoundaryIs></Polygon></Placemark>
<Placemark><name>Hala A2</name><styleUrl>#h</styleUrl><Polygon><outerBoundaryIs><LinearRing><coordinates>24.149413,45.826221,0 24.149107,45.825318,0 24.149909,45.825185,0 24.150216,45.826088,0 24.149413,45.826221,0</coordinates></LinearRing></outerBoundaryIs></Polygon></Placemark>
<Placemark><name>Hala B</name><styleUrl>#h</styleUrl><Polygon><outerBoundaryIs><LinearRing><coordinates>24.147524,45.826852,0 24.147130,45.825688,0 24.148644,45.825437,0 24.149039,45.826601,0 24.147524,45.826852,0</coordinates></LinearRing></outerBoundaryIs></Polygon></Placemark>
</Folder><Folder><name>Foraje propuse (12 m)</name>
<Placemark><name>FC1</name><styleUrl>#f</styleUrl><description>X=433814.8 Y=481137.6 (Stereo 70)</description><Point><coordinates>24.14647861502387,45.826779612190926,0</coordinates></Point></Placemark>
<Placemark><name>FC2</name><styleUrl>#f</styleUrl><description>X=433795.6 Y=481060.2 (Stereo 70)</description><Point><coordinates>24.146241962967252,45.82608169799954,0</coordinates></Point></Placemark>
<Placemark><name>FC3</name><styleUrl>#f</styleUrl><description>X=433770.0 Y=481107.6 (Stereo 70)</description><Point><coordinates>24.145906237116286,45.82650590475073,0</coordinates></Point></Placemark>
<Placemark><name>FC4</name><styleUrl>#f</styleUrl><description>X=433744.5 Y=481155.0 (Stereo 70)</description><Point><coordinates>24.145570506141322,45.82693011046925,0</coordinates></Point></Placemark>
<Placemark><name>FC5</name><styleUrl>#f</styleUrl><description>X=433725.2 Y=481077.7 (Stereo 70)</description><Point><coordinates>24.145333864838477,45.82623219444782,0</coordinates></Point></Placemark>
<Placemark><name>FD1</name><styleUrl>#f</styleUrl><description>X=433551.3 Y=481098.4 (Stereo 70)</description><Point><coordinates>24.143091969082686,45.82640219082639,0</coordinates></Point></Placemark>
<Placemark><name>FD2</name><styleUrl>#f</styleUrl><description>X=433607.1 Y=481093.6 (Stereo 70)</description><Point><coordinates>24.143810736077835,45.826364081428295,0</coordinates></Point></Placemark>
<Placemark><name>FD3</name><styleUrl>#f</styleUrl><description>X=433584.4 Y=481155.8 (Stereo 70)</description><Point><coordinates>24.143509757767976,45.82692153061434,0</coordinates></Point></Placemark>
<Placemark><name>FD4</name><styleUrl>#f</styleUrl><description>X=433561.2 Y=481213.0 (Stereo 70)</description><Point><coordinates>24.14320390647208,45.82743411277301,0</coordinates></Point></Placemark>
<Placemark><name>FD5</name><styleUrl>#f</styleUrl><description>X=433617.0 Y=481208.2 (Stereo 70)</description><Point><coordinates>24.143922686701927,45.827396002722345,0</coordinates></Point></Placemark>
<Placemark><name>FD6</name><styleUrl>#f</styleUrl><description>X=433577.7 Y=481286.9 (Stereo 70)</description><Point><coordinates>24.14340526649873,45.828100300100296,0</coordinates></Point></Placemark>
<Placemark><name>FD7</name><styleUrl>#f</styleUrl><description>X=433584.1 Y=481361.6 (Stereo 70)</description><Point><coordinates>24.143478274546972,45.82877329235334,0</coordinates></Point></Placemark>
<Placemark><name>FE1</name><styleUrl>#f</styleUrl><description>X=433789.0 Y=481275.7 (Stereo 70)</description><Point><coordinates>24.146127745475322,45.828020228078614,0</coordinates></Point></Placemark>
<Placemark><name>FE2</name><styleUrl>#f</styleUrl><description>X=433662.9 Y=481286.6 (Stereo 70)</description><Point><coordinates>24.14450238730969,45.82810642931733,0</coordinates></Point></Placemark>
<Placemark><name>FE3</name><styleUrl>#f</styleUrl><description>X=433727.8 Y=481302.3 (Stereo 70)</description><Point><coordinates>24.145335734614406,45.8282537880781,0</coordinates></Point></Placemark>
<Placemark><name>FE4</name><styleUrl>#f</styleUrl><description>X=433792.7 Y=481318.0 (Stereo 70)</description><Point><coordinates>24.146169086364687,45.82840114076446,0</coordinates></Point></Placemark>
<Placemark><name>FE5</name><styleUrl>#f</styleUrl><description>X=433666.6 Y=481328.9 (Stereo 70)</description><Point><coordinates>24.144543717151535,45.828487342548144,0</coordinates></Point></Placemark>
</Folder><Folder><name>Raze de 30 m in jurul forajelor</name>
<Placemark><name>R30 FC1</name><styleUrl>#c30</styleUrl><Polygon><outerBoundaryIs><LinearRing><coordinates>24.146865,45.826783,0 24.146863,45.826806,0 24.146858,45.826829,0 24.146851,45.826852,0 24.146840,45.826875,0 24.146827,45.826896,0 24.146811,45.826917,0 24.146793,45.826937,0 24.146772,45.826955,0 24.146749,45.826973,0 24.146724,45.826988,0 24.146697,45.827002,0 24.146668,45.827015,0 24.146638,45.827025,0 24.146607,45.827034,0 24.146575,45.827041,0 24.146542,45.827046,0 24.146508,45.827049,0 24.146474,45.827050,0 24.146441,45.827048,0 24.146407,45.827045,0 24.146375,45.827040,0 24.146343,45.827032,0 24.146312,45.827023,0 24.146282,45.827012,0 24.146254,45.826999,0 24.146227,45.826985,0 24.146203,45.826968,0 24.146180,45.826951,0 24.146160,45.826932,0 24.146142,45.826912,0 24.146127,45.826891,0 24.146114,45.826869,0 24.146105,45.826847,0 24.146098,45.826824,0 24.146094,45.826800,0 24.146092,45.826777,0 24.146094,45.826753,0 24.146099,45.826730,0 24.146107,45.826707,0 24.146117,45.826685,0 24.146130,45.826663,0 24.146146,45.826642,0 24.146165,45.826622,0 24.146185,45.826604,0 24.146208,45.826587,0 24.146234,45.826571,0 24.146261,45.826557,0 24.146289,45.826544,0 24.146319,45.826534,0 24.146350,45.826525,0 24.146383,45.826518,0 24.146416,45.826513,0 24.146449,45.826510,0 24.146483,45.826510,0 24.146516,45.826511,0 24.146550,45.826514,0 24.146583,45.826520,0 24.146615,45.826527,0 24.146646,45.826536,0 24.146675,45.826547,0 24.146703,45.826560,0 24.146730,45.826575,0 24.146755,45.826591,0 24.146777,45.826608,0 24.146797,45.826627,0 24.146815,45.826647,0 24.146830,45.826668,0 24.146843,45.826690,0 24.146853,45.826713,0 24.146860,45.826736,0 24.146864,45.826759,0 24.146865,45.826783,0</coordinates></LinearRing></outerBoundaryIs></Polygon></Placemark>
<Placemark><name>R30 FC2</name><styleUrl>#c30</styleUrl><Polygon><outerBoundaryIs><LinearRing><coordinates>24.146628,45.826085,0 24.146626,45.826108,0 24.146622,45.826131,0 24.146614,45.826154,0 24.146603,45.826177,0 24.146590,45.826198,0 24.146574,45.826219,0 24.146556,45.826239,0 24.146535,45.826257,0 24.146512,45.826275,0 24.146487,45.826290,0 24.146460,45.826304,0 24.146431,45.826317,0 24.146401,45.826328,0 24.146370,45.826336,0 24.146338,45.826343,0 24.146305,45.826348,0 24.146271,45.826351,0 24.146238,45.826352,0 24.146204,45.826350,0 24.146171,45.826347,0 24.146138,45.826342,0 24.146106,45.826334,0 24.146075,45.826325,0 24.146045,45.826314,0 24.146017,45.826301,0 24.145991,45.826287,0 24.145966,45.826271,0 24.145944,45.826253,0 24.145923,45.826234,0 24.145905,45.826214,0 24.145890,45.826193,0 24.145878,45.826171,0 24.145868,45.826149,0 24.145861,45.826126,0 24.145857,45.826102,0 24.145856,45.826079,0 24.145858,45.826055,0 24.145862,45.826032,0 24.145870,45.826009,0 24.145881,45.825987,0 24.145894,45.825965,0 24.145910,45.825944,0 24.145928,45.825924,0 24.145949,45.825906,0 24.145972,45.825889,0 24.145997,45.825873,0 24.146024,45.825859,0 24.146052,45.825846,0 24.146083,45.825836,0 24.146114,45.825827,0 24.146146,45.825820,0 24.146179,45.825815,0 24.146212,45.825813,0 24.146246,45.825812,0 24.146280,45.825813,0 24.146313,45.825816,0 24.146346,45.825822,0 24.146378,45.825829,0 24.146409,45.825838,0 24.146439,45.825849,0 24.146467,45.825862,0 24.146493,45.825877,0 24.146518,45.825893,0 24.146540,45.825910,0 24.146561,45.825929,0 24.146578,45.825949,0 24.146594,45.825970,0 24.146606,45.825992,0 24.146616,45.826015,0 24.146623,45.826038,0 24.146627,45.826061,0 24.146628,45.826085,0</coordinates></LinearRing></outerBoundaryIs></Polygon></Placemark>
<Placemark><name>R30 FC3</name><styleUrl>#c30</styleUrl><Polygon><outerBoundaryIs><LinearRing><coordinates>24.146292,45.826509,0 24.146291,45.826532,0 24.146286,45.826556,0 24.146278,45.826579,0 24.146268,45.826601,0 24.146254,45.826623,0 24.146239,45.826643,0 24.146220,45.826663,0 24.146199,45.826682,0 24.146176,45.826699,0 24.146151,45.826715,0 24.146124,45.826729,0 24.146096,45.826741,0 24.146066,45.826752,0 24.146034,45.826761,0 24.146002,45.826767,0 24.145969,45.826772,0 24.145936,45.826775,0 24.145902,45.826776,0 24.145868,45.826775,0 24.145835,45.826771,0 24.145802,45.826766,0 24.145770,45.826759,0 24.145739,45.826749,0 24.145710,45.826738,0 24.145681,45.826725,0 24.145655,45.826711,0 24.145630,45.826695,0 24.145608,45.826677,0 24.145588,45.826658,0 24.145570,45.826638,0 24.145555,45.826617,0 24.145542,45.826596,0 24.145532,45.826573,0 24.145525,45.826550,0 24.145521,45.826527,0 24.145520,45.826503,0 24.145522,45.826479,0 24.145527,45.826456,0 24.145534,45.826433,0 24.145545,45.826411,0 24.145558,45.826389,0 24.145574,45.826368,0 24.145592,45.826349,0 24.145613,45.826330,0 24.145636,45.826313,0 24.145661,45.826297,0 24.145688,45.826283,0 24.145717,45.826271,0 24.145747,45.826260,0 24.145778,45.826251,0 24.145810,45.826244,0 24.145843,45.826240,0 24.145877,45.826237,0 24.145910,45.826236,0 24.145944,45.826237,0 24.145977,45.826241,0 24.146010,45.826246,0 24.146042,45.826253,0 24.146073,45.826262,0 24.146103,45.826274,0 24.146131,45.826286,0 24.146158,45.826301,0 24.146182,45.826317,0 24.146205,45.826335,0 24.146225,45.826353,0 24.146243,45.826373,0 24.146258,45.826394,0 24.146271,45.826416,0 24.146280,45.826439,0 24.146287,45.826462,0 24.146291,45.826485,0 24.146292,45.826509,0</coordinates></LinearRing></outerBoundaryIs></Polygon></Placemark>
<Placemark><name>R30 FC4</name><styleUrl>#c30</styleUrl><Polygon><outerBoundaryIs><LinearRing><coordinates>24.145957,45.826933,0 24.145955,45.826957,0 24.145950,45.826980,0 24.145942,45.827003,0 24.145932,45.827025,0 24.145919,45.827047,0 24.145903,45.827068,0 24.145884,45.827087,0 24.145864,45.827106,0 24.145841,45.827123,0 24.145816,45.827139,0 24.145789,45.827153,0 24.145760,45.827165,0 24.145730,45.827176,0 24.145699,45.827185,0 24.145666,45.827192,0 24.145633,45.827196,0 24.145600,45.827199,0 24.145566,45.827200,0 24.145533,45.827199,0 24.145499,45.827195,0 24.145467,45.827190,0 24.145435,45.827183,0 24.145404,45.827174,0 24.145374,45.827162,0 24.145346,45.827150,0 24.145319,45.827135,0 24.145295,45.827119,0 24.145272,45.827101,0 24.145252,45.827083,0 24.145234,45.827063,0 24.145219,45.827042,0 24.145206,45.827020,0 24.145196,45.826997,0 24.145190,45.826974,0 24.145185,45.826951,0 24.145184,45.826927,0 24.145186,45.826904,0 24.145191,45.826880,0 24.145199,45.826857,0 24.145209,45.826835,0 24.145222,45.826813,0 24.145238,45.826793,0 24.145257,45.826773,0 24.145277,45.826754,0 24.145300,45.826737,0 24.145325,45.826721,0 24.145352,45.826707,0 24.145381,45.826695,0 24.145411,45.826684,0 24.145442,45.826675,0 24.145475,45.826669,0 24.145508,45.826664,0 24.145541,45.826661,0 24.145575,45.826660,0 24.145608,45.826661,0 24.145642,45.826665,0 24.145674,45.826670,0 24.145706,45.826677,0 24.145737,45.826687,0 24.145767,45.826698,0 24.145795,45.826711,0 24.145822,45.826725,0 24.145846,45.826741,0 24.145869,45.826759,0 24.145889,45.826778,0 24.145907,45.826798,0 24.145922,45.826819,0 24.145935,45.826840,0 24.145945,45.826863,0 24.145951,45.826886,0 24.145956,45.826909,0 24.145957,45.826933,0</coordinates></LinearRing></outerBoundaryIs></Polygon></Placemark>
<Placemark><name>R30 FC5</name><styleUrl>#c30</styleUrl><Polygon><outerBoundaryIs><LinearRing><coordinates>24.145720,45.826235,0 24.145718,45.826259,0 24.145713,45.826282,0 24.145706,45.826305,0 24.145695,45.826327,0 24.145682,45.826349,0 24.145666,45.826370,0 24.145648,45.826389,0 24.145627,45.826408,0 24.145604,45.826425,0 24.145579,45.826441,0 24.145552,45.826455,0 24.145523,45.826467,0 24.145493,45.826478,0 24.145462,45.826487,0 24.145430,45.826494,0 24.145397,45.826499,0 24.145363,45.826501,0 24.145330,45.826502,0 24.145296,45.826501,0 24.145263,45.826498,0 24.145230,45.826492,0 24.145198,45.826485,0 24.145167,45.826476,0 24.145137,45.826465,0 24.145109,45.826452,0 24.145082,45.826437,0 24.145058,45.826421,0 24.145035,45.826404,0 24.145015,45.826385,0 24.144997,45.826365,0 24.144982,45.826344,0 24.144970,45.826322,0 24.144960,45.826299,0 24.144953,45.826276,0 24.144949,45.826253,0 24.144948,45.826229,0 24.144950,45.826206,0 24.144954,45.826182,0 24.144962,45.826160,0 24.144972,45.826137,0 24.144986,45.826115,0 24.145002,45.826095,0 24.145020,45.826075,0 24.145041,45.826056,0 24.145064,45.826039,0 24.145089,45.826024,0 24.145116,45.826009,0 24.145144,45.825997,0 24.145174,45.825986,0 24.145206,45.825978,0 24.145238,45.825971,0 24.145271,45.825966,0 24.145304,45.825963,0 24.145338,45.825962,0 24.145372,45.825964,0 24.145405,45.825967,0 24.145438,45.825972,0 24.145470,45.825980,0 24.145501,45.825989,0 24.145531,45.826000,0 24.145559,45.826013,0 24.145585,45.826027,0 24.145610,45.826043,0 24.145632,45.826061,0 24.145653,45.826080,0 24.145670,45.826100,0 24.145686,45.826121,0 24.145698,45.826143,0 24.145708,45.826165,0 24.145715,45.826188,0 24.145719,45.826212,0 24.145720,45.826235,0</coordinates></LinearRing></outerBoundaryIs></Polygon></Placemark>
<Placemark><name>R30 FD1</name><styleUrl>#c30</styleUrl><Polygon><outerBoundaryIs><LinearRing><coordinates>24.143478,45.826405,0 24.143476,45.826429,0 24.143472,45.826452,0 24.143464,45.826475,0 24.143453,45.826497,0 24.143440,45.826519,0 24.143424,45.826540,0 24.143406,45.826559,0 24.143385,45.826578,0 24.143362,45.826595,0 24.143337,45.826611,0 24.143310,45.826625,0 24.143281,45.826637,0 24.143251,45.826648,0 24.143220,45.826657,0 24.143188,45.826664,0 24.143155,45.826669,0 24.143121,45.826671,0 24.143088,45.826672,0 24.143054,45.826671,0 24.143021,45.826668,0 24.142988,45.826662,0 24.142956,45.826655,0 24.142925,45.826646,0 24.142895,45.826635,0 24.142867,45.826622,0 24.142841,45.826607,0 24.142816,45.826591,0 24.142794,45.826573,0 24.142773,45.826555,0 24.142755,45.826535,0 24.142740,45.826514,0 24.142728,45.826492,0 24.142718,45.826469,0 24.142711,45.826446,0 24.142707,45.826423,0 24.142706,45.826399,0 24.142708,45.826376,0 24.142712,45.826352,0 24.142720,45.826330,0 24.142731,45.826307,0 24.142744,45.826285,0 24.142760,45.826265,0 24.142778,45.826245,0 24.142799,45.826226,0 24.142822,45.826209,0 24.142847,45.826194,0 24.142874,45.826179,0 24.142902,45.826167,0 24.142933,45.826156,0 24.142964,45.826148,0 24.142996,45.826141,0 24.143029,45.826136,0 24.143062,45.826133,0 24.143096,45.826132,0 24.143130,45.826134,0 24.143163,45.826137,0 24.143196,45.826142,0 24.143228,45.826150,0 24.143259,45.826159,0 24.143289,45.826170,0 24.143317,45.826183,0 24.143343,45.826197,0 24.143368,45.826213,0 24.143390,45.826231,0 24.143411,45.826250,0 24.143428,45.826270,0 24.143444,45.826291,0 24.143456,45.826313,0 24.143466,45.826335,0 24.143473,45.826358,0 24.143477,45.826382,0 24.143478,45.826405,0</coordinates></LinearRing></outerBoundaryIs></Polygon></Placemark>
<Placemark><name>R30 FD2</name><styleUrl>#c30</styleUrl><Polygon><outerBoundaryIs><LinearRing><coordinates>24.144197,45.826367,0 24.144195,45.826390,0 24.144190,45.826414,0 24.144183,45.826437,0 24.144172,45.826459,0 24.144159,45.826481,0 24.144143,45.826502,0 24.144125,45.826521,0 24.144104,45.826540,0 24.144081,45.826557,0 24.144056,45.826573,0 24.144029,45.826587,0 24.144000,45.826599,0 24.143970,45.826610,0 24.143939,45.826619,0 24.143907,45.826626,0 24.143874,45.826630,0 24.143840,45.826633,0 24.143807,45.826634,0 24.143773,45.826633,0 24.143740,45.826629,0 24.143707,45.826624,0 24.143675,45.826617,0 24.143644,45.826608,0 24.143614,45.826596,0 24.143586,45.826584,0 24.143559,45.826569,0 24.143535,45.826553,0 24.143512,45.826535,0 24.143492,45.826517,0 24.143474,45.826497,0 24.143459,45.826476,0 24.143446,45.826454,0 24.143437,45.826431,0 24.143430,45.826408,0 24.143426,45.826385,0 24.143425,45.826361,0 24.143426,45.826338,0 24.143431,45.826314,0 24.143439,45.826291,0 24.143449,45.826269,0 24.143463,45.826247,0 24.143478,45.826227,0 24.143497,45.826207,0 24.143518,45.826188,0 24.143541,45.826171,0 24.143566,45.826155,0 24.143593,45.826141,0 24.143621,45.826129,0 24.143651,45.826118,0 24.143683,45.826109,0 24.143715,45.826103,0 24.143748,45.826098,0 24.143781,45.826095,0 24.143815,45.826094,0 24.143849,45.826095,0 24.143882,45.826099,0 24.143915,45.826104,0 24.143947,45.826111,0 24.143978,45.826121,0 24.144007,45.826132,0 24.144036,45.826145,0 24.144062,45.826159,0 24.144087,45.826175,0 24.144109,45.826193,0 24.144129,45.826212,0 24.144147,45.826232,0 24.144162,45.826253,0 24.144175,45.826274,0 24.144185,45.826297,0 24.144192,45.826320,0 24.144196,45.826343,0 24.144197,45.826367,0</coordinates></LinearRing></outerBoundaryIs></Polygon></Placemark>
<Placemark><name>R30 FD3</name><styleUrl>#c30</styleUrl><Polygon><outerBoundaryIs><LinearRing><coordinates>24.143896,45.826924,0 24.143894,45.826948,0 24.143889,45.826971,0 24.143882,45.826994,0 24.143871,45.827017,0 24.143858,45.827038,0 24.143842,45.827059,0 24.143824,45.827079,0 24.143803,45.827097,0 24.143780,45.827114,0 24.143755,45.827130,0 24.143728,45.827144,0 24.143699,45.827157,0 24.143669,45.827167,0 24.143638,45.827176,0 24.143606,45.827183,0 24.143573,45.827188,0 24.143539,45.827191,0 24.143506,45.827191,0 24.143472,45.827190,0 24.143439,45.827187,0 24.143406,45.827182,0 24.143374,45.827174,0 24.143343,45.827165,0 24.143313,45.827154,0 24.143285,45.827141,0 24.143258,45.827126,0 24.143234,45.827110,0 24.143211,45.827093,0 24.143191,45.827074,0 24.143173,45.827054,0 24.143158,45.827033,0 24.143145,45.827011,0 24.143136,45.826989,0 24.143129,45.826966,0 24.143125,45.826942,0 24.143124,45.826919,0 24.143125,45.826895,0 24.143130,45.826872,0 24.143138,45.826849,0 24.143148,45.826826,0 24.143162,45.826805,0 24.143177,45.826784,0 24.143196,45.826764,0 24.143217,45.826746,0 24.143240,45.826729,0 24.143265,45.826713,0 24.143292,45.826699,0 24.143320,45.826686,0 24.143350,45.826676,0 24.143382,45.826667,0 24.143414,45.826660,0 24.143447,45.826655,0 24.143480,45.826652,0 24.143514,45.826652,0 24.143548,45.826653,0 24.143581,45.826656,0 24.143614,45.826662,0 24.143646,45.826669,0 24.143677,45.826678,0 24.143706,45.826689,0 24.143735,45.826702,0 24.143761,45.826717,0 24.143786,45.826733,0 24.143808,45.826750,0 24.143828,45.826769,0 24.143846,45.826789,0 24.143861,45.826810,0 24.143874,45.826832,0 24.143884,45.826854,0 24.143891,45.826878,0 24.143895,45.826901,0 24.143896,45.826924,0</coordinates></LinearRing></outerBoundaryIs></Polygon></Placemark>
<Placemark><name>R30 FD4</name><styleUrl>#c30</styleUrl><Polygon><outerBoundaryIs><LinearRing><coordinates>24.143590,45.827437,0 24.143588,45.827461,0 24.143583,45.827484,0 24.143576,45.827507,0 24.143565,45.827529,0 24.143552,45.827551,0 24.143536,45.827572,0 24.143518,45.827591,0 24.143497,45.827610,0 24.143474,45.827627,0 24.143449,45.827643,0 24.143422,45.827657,0 24.143393,45.827669,0 24.143363,45.827680,0 24.143332,45.827689,0 24.143300,45.827696,0 24.143267,45.827700,0 24.143233,45.827703,0 24.143200,45.827704,0 24.143166,45.827703,0 24.143133,45.827699,0 24.143100,45.827694,0 24.143068,45.827687,0 24.143037,45.827678,0 24.143007,45.827666,0 24.142979,45.827654,0 24.142953,45.827639,0 24.142928,45.827623,0 24.142905,45.827605,0 24.142885,45.827587,0 24.142867,45.827567,0 24.142852,45.827546,0 24.142840,45.827524,0 24.142830,45.827501,0 24.142823,45.827478,0 24.142819,45.827455,0 24.142818,45.827431,0 24.142820,45.827408,0 24.142824,45.827384,0 24.142832,45.827361,0 24.142842,45.827339,0 24.142856,45.827317,0 24.142872,45.827297,0 24.142890,45.827277,0 24.142911,45.827258,0 24.142934,45.827241,0 24.142959,45.827225,0 24.142986,45.827211,0 24.143014,45.827199,0 24.143044,45.827188,0 24.143076,45.827179,0 24.143108,45.827173,0 24.143141,45.827168,0 24.143174,45.827165,0 24.143208,45.827164,0 24.143242,45.827165,0 24.143275,45.827169,0 24.143308,45.827174,0 24.143340,45.827181,0 24.143371,45.827191,0 24.143401,45.827202,0 24.143429,45.827215,0 24.143455,45.827229,0 24.143480,45.827245,0 24.143502,45.827263,0 24.143523,45.827282,0 24.143540,45.827302,0 24.143556,45.827323,0 24.143568,45.827345,0 24.143578,45.827367,0 24.143585,45.827390,0 24.143589,45.827413,0 24.143590,45.827437,0</coordinates></LinearRing></outerBoundaryIs></Polygon></Placemark>
<Placemark><name>R30 FD5</name><styleUrl>#c30</styleUrl><Polygon><outerBoundaryIs><LinearRing><coordinates>24.144309,45.827399,0 24.144307,45.827422,0 24.144302,45.827446,0 24.144295,45.827469,0 24.144284,45.827491,0 24.144271,45.827513,0 24.144255,45.827533,0 24.144237,45.827553,0 24.144216,45.827572,0 24.144193,45.827589,0 24.144168,45.827605,0 24.144141,45.827619,0 24.144112,45.827631,0 24.144082,45.827642,0 24.144051,45.827651,0 24.144019,45.827658,0 24.143986,45.827662,0 24.143952,45.827665,0 24.143919,45.827666,0 24.143885,45.827665,0 24.143852,45.827661,0 24.143819,45.827656,0 24.143787,45.827649,0 24.143756,45.827639,0 24.143726,45.827628,0 24.143698,45.827615,0 24.143671,45.827601,0 24.143647,45.827585,0 24.143624,45.827567,0 24.143604,45.827548,0 24.143586,45.827528,0 24.143571,45.827507,0 24.143558,45.827486,0 24.143549,45.827463,0 24.143542,45.827440,0 24.143538,45.827417,0 24.143537,45.827393,0 24.143538,45.827370,0 24.143543,45.827346,0 24.143551,45.827323,0 24.143561,45.827301,0 24.143574,45.827279,0 24.143590,45.827259,0 24.143609,45.827239,0 24.143630,45.827220,0 24.143653,45.827203,0 24.143678,45.827187,0 24.143705,45.827173,0 24.143733,45.827161,0 24.143763,45.827150,0 24.143795,45.827141,0 24.143827,45.827134,0 24.143860,45.827130,0 24.143893,45.827127,0 24.143927,45.827126,0 24.143960,45.827127,0 24.143994,45.827131,0 24.144027,45.827136,0 24.144059,45.827143,0 24.144090,45.827153,0 24.144119,45.827164,0 24.144148,45.827177,0 24.144174,45.827191,0 24.144199,45.827207,0 24.144221,45.827225,0 24.144241,45.827244,0 24.144259,45.827264,0 24.144274,45.827285,0 24.144287,45.827306,0 24.144297,45.827329,0 24.144304,45.827352,0 24.144308,45.827375,0 24.144309,45.827399,0</coordinates></LinearRing></outerBoundaryIs></Polygon></Placemark>
<Placemark><name>R30 FD6</name><styleUrl>#c30</styleUrl><Polygon><outerBoundaryIs><LinearRing><coordinates>24.143791,45.828103,0 24.143790,45.828127,0 24.143785,45.828150,0 24.143777,45.828173,0 24.143767,45.828195,0 24.143753,45.828217,0 24.143738,45.828238,0 24.143719,45.828258,0 24.143698,45.828276,0 24.143675,45.828293,0 24.143650,45.828309,0 24.143623,45.828323,0 24.143595,45.828336,0 24.143565,45.828346,0 24.143533,45.828355,0 24.143501,45.828362,0 24.143468,45.828367,0 24.143435,45.828369,0 24.143401,45.828370,0 24.143367,45.828369,0 24.143334,45.828366,0 24.143301,45.828360,0 24.143269,45.828353,0 24.143238,45.828344,0 24.143209,45.828333,0 24.143180,45.828320,0 24.143154,45.828305,0 24.143129,45.828289,0 24.143107,45.828272,0 24.143087,45.828253,0 24.143069,45.828233,0 24.143054,45.828212,0 24.143041,45.828190,0 24.143031,45.828167,0 24.143024,45.828144,0 24.143020,45.828121,0 24.143019,45.828097,0 24.143021,45.828074,0 24.143026,45.828051,0 24.143033,45.828028,0 24.143044,45.828005,0 24.143057,45.827984,0 24.143073,45.827963,0 24.143091,45.827943,0 24.143112,45.827925,0 24.143135,45.827907,0 24.143160,45.827892,0 24.143187,45.827878,0 24.143216,45.827865,0 24.143246,45.827854,0 24.143277,45.827846,0 24.143309,45.827839,0 24.143342,45.827834,0 24.143376,45.827831,0 24.143409,45.827830,0 24.143443,45.827832,0 24.143476,45.827835,0 24.143509,45.827840,0 24.143541,45.827848,0 24.143572,45.827857,0 24.143602,45.827868,0 24.143630,45.827881,0 24.143657,45.827895,0 24.143681,45.827911,0 24.143704,45.827929,0 24.143724,45.827948,0 24.143742,45.827968,0 24.143757,45.827989,0 24.143770,45.828011,0 24.143779,45.828033,0 24.143786,45.828056,0 24.143790,45.828080,0 24.143791,45.828103,0</coordinates></LinearRing></outerBoundaryIs></Polygon></Placemark>
<Placemark><name>R30 FD7</name><styleUrl>#c30</styleUrl><Polygon><outerBoundaryIs><LinearRing><coordinates>24.143864,45.828776,0 24.143863,45.828800,0 24.143858,45.828823,0 24.143850,45.828846,0 24.143840,45.828868,0 24.143826,45.828890,0 24.143811,45.828911,0 24.143792,45.828931,0 24.143771,45.828949,0 24.143748,45.828966,0 24.143723,45.828982,0 24.143696,45.828996,0 24.143668,45.829009,0 24.143638,45.829019,0 24.143606,45.829028,0 24.143574,45.829035,0 24.143541,45.829040,0 24.143508,45.829042,0 24.143474,45.829043,0 24.143440,45.829042,0 24.143407,45.829039,0 24.143374,45.829033,0 24.143342,45.829026,0 24.143311,45.829017,0 24.143282,45.829006,0 24.143253,45.828993,0 24.143227,45.828978,0 24.143202,45.828962,0 24.143180,45.828945,0 24.143160,45.828926,0 24.143142,45.828906,0 24.143127,45.828885,0 24.143114,45.828863,0 24.143104,45.828840,0 24.143097,45.828817,0 24.143093,45.828794,0 24.143092,45.828770,0 24.143094,45.828747,0 24.143099,45.828724,0 24.143106,45.828701,0 24.143117,45.828678,0 24.143130,45.828657,0 24.143146,45.828636,0 24.143164,45.828616,0 24.143185,45.828598,0 24.143208,45.828580,0 24.143233,45.828565,0 24.143260,45.828550,0 24.143289,45.828538,0 24.143319,45.828527,0 24.143350,45.828519,0 24.143382,45.828512,0 24.143415,45.828507,0 24.143449,45.828504,0 24.143482,45.828503,0 24.143516,45.828505,0 24.143549,45.828508,0 24.143582,45.828513,0 24.143614,45.828521,0 24.143645,45.828530,0 24.143675,45.828541,0 24.143703,45.828554,0 24.143730,45.828568,0 24.143754,45.828584,0 24.143777,45.828602,0 24.143797,45.828621,0 24.143815,45.828641,0 24.143830,45.828662,0 24.143843,45.828684,0 24.143852,45.828706,0 24.143859,45.828729,0 24.143863,45.828753,0 24.143864,45.828776,0</coordinates></LinearRing></outerBoundaryIs></Polygon></Placemark>
<Placemark><name>R30 FE1</name><styleUrl>#c30</styleUrl><Polygon><outerBoundaryIs><LinearRing><coordinates>24.146514,45.828023,0 24.146512,45.828047,0 24.146507,45.828070,0 24.146500,45.828093,0 24.146489,45.828115,0 24.146476,45.828137,0 24.146460,45.828158,0 24.146442,45.828177,0 24.146421,45.828196,0 24.146398,45.828213,0 24.146373,45.828229,0 24.146346,45.828243,0 24.146317,45.828255,0 24.146287,45.828266,0 24.146256,45.828275,0 24.146224,45.828282,0 24.146191,45.828287,0 24.146157,45.828289,0 24.146124,45.828290,0 24.146090,45.828289,0 24.146057,45.828286,0 24.146024,45.828280,0 24.145992,45.828273,0 24.145961,45.828264,0 24.145931,45.828253,0 24.145903,45.828240,0 24.145876,45.828225,0 24.145852,45.828209,0 24.145829,45.828192,0 24.145809,45.828173,0 24.145791,45.828153,0 24.145776,45.828132,0 24.145763,45.828110,0 24.145754,45.828087,0 24.145747,45.828064,0 24.145743,45.828041,0 24.145742,45.828017,0 24.145743,45.827994,0 24.145748,45.827971,0 24.145756,45.827948,0 24.145766,45.827925,0 24.145780,45.827904,0 24.145795,45.827883,0 24.145814,45.827863,0 24.145835,45.827844,0 24.145858,45.827827,0 24.145883,45.827812,0 24.145910,45.827797,0 24.145938,45.827785,0 24.145968,45.827774,0 24.146000,45.827766,0 24.146032,45.827759,0 24.146065,45.827754,0 24.146098,45.827751,0 24.146132,45.827750,0 24.146166,45.827752,0 24.146199,45.827755,0 24.146232,45.827760,0 24.146264,45.827768,0 24.146295,45.827777,0 24.146324,45.827788,0 24.146353,45.827801,0 24.146379,45.827815,0 24.146404,45.827831,0 24.146426,45.827849,0 24.146446,45.827868,0 24.146464,45.827888,0 24.146479,45.827909,0 24.146492,45.827931,0 24.146502,45.827953,0 24.146509,45.827976,0 24.146513,45.828000,0 24.146514,45.828023,0</coordinates></LinearRing></outerBoundaryIs></Polygon></Placemark>
<Placemark><name>R30 FE2</name><styleUrl>#c30</styleUrl><Polygon><outerBoundaryIs><LinearRing><coordinates>24.144889,45.828109,0 24.144887,45.828133,0 24.144882,45.828156,0 24.144874,45.828179,0 24.144864,45.828201,0 24.144851,45.828223,0 24.144835,45.828244,0 24.144816,45.828264,0 24.144796,45.828282,0 24.144773,45.828299,0 24.144747,45.828315,0 24.144720,45.828329,0 24.144692,45.828342,0 24.144662,45.828352,0 24.144631,45.828361,0 24.144598,45.828368,0 24.144565,45.828373,0 24.144532,45.828376,0 24.144498,45.828376,0 24.144465,45.828375,0 24.144431,45.828372,0 24.144398,45.828366,0 24.144366,45.828359,0 24.144335,45.828350,0 24.144306,45.828339,0 24.144278,45.828326,0 24.144251,45.828311,0 24.144226,45.828295,0 24.144204,45.828278,0 24.144184,45.828259,0 24.144166,45.828239,0 24.144151,45.828218,0 24.144138,45.828196,0 24.144128,45.828174,0 24.144121,45.828150,0 24.144117,45.828127,0 24.144116,45.828104,0 24.144118,45.828080,0 24.144123,45.828057,0 24.144130,45.828034,0 24.144141,45.828011,0 24.144154,45.827990,0 24.144170,45.827969,0 24.144188,45.827949,0 24.144209,45.827931,0 24.144232,45.827913,0 24.144257,45.827898,0 24.144284,45.827884,0 24.144313,45.827871,0 24.144343,45.827861,0 24.144374,45.827852,0 24.144406,45.827845,0 24.144439,45.827840,0 24.144473,45.827837,0 24.144507,45.827836,0 24.144540,45.827838,0 24.144574,45.827841,0 24.144606,45.827846,0 24.144638,45.827854,0 24.144669,45.827863,0 24.144699,45.827874,0 24.144727,45.827887,0 24.144754,45.827901,0 24.144778,45.827918,0 24.144801,45.827935,0 24.144821,45.827954,0 24.144839,45.827974,0 24.144854,45.827995,0 24.144867,45.828017,0 24.144876,45.828039,0 24.144883,45.828062,0 24.144887,45.828086,0 24.144889,45.828109,0</coordinates></LinearRing></outerBoundaryIs></Polygon></Placemark>
<Placemark><name>R30 FE3</name><styleUrl>#c30</styleUrl><Polygon><outerBoundaryIs><LinearRing><coordinates>24.145722,45.828257,0 24.145720,45.828280,0 24.145715,45.828304,0 24.145708,45.828326,0 24.145697,45.828349,0 24.145684,45.828370,0 24.145668,45.828391,0 24.145650,45.828411,0 24.145629,45.828430,0 24.145606,45.828447,0 24.145581,45.828462,0 24.145554,45.828477,0 24.145525,45.828489,0 24.145495,45.828500,0 24.145464,45.828508,0 24.145432,45.828515,0 24.145399,45.828520,0 24.145365,45.828523,0 24.145332,45.828524,0 24.145298,45.828522,0 24.145265,45.828519,0 24.145232,45.828514,0 24.145200,45.828506,0 24.145169,45.828497,0 24.145139,45.828486,0 24.145111,45.828473,0 24.145084,45.828459,0 24.145060,45.828443,0 24.145037,45.828425,0 24.145017,45.828406,0 24.144999,45.828386,0 24.144984,45.828365,0 24.144971,45.828343,0 24.144962,45.828321,0 24.144955,45.828298,0 24.144951,45.828274,0 24.144950,45.828251,0 24.144951,45.828227,0 24.144956,45.828204,0 24.144964,45.828181,0 24.144974,45.828159,0 24.144988,45.828137,0 24.145003,45.828116,0 24.145022,45.828097,0 24.145043,45.828078,0 24.145066,45.828061,0 24.145091,45.828045,0 24.145118,45.828031,0 24.145146,45.828019,0 24.145176,45.828008,0 24.145208,45.827999,0 24.145240,45.827992,0 24.145273,45.827987,0 24.145306,45.827985,0 24.145340,45.827984,0 24.145374,45.827985,0 24.145407,45.827988,0 24.145440,45.827994,0 24.145472,45.828001,0 24.145503,45.828010,0 24.145532,45.828021,0 24.145561,45.828034,0 24.145587,45.828049,0 24.145612,45.828065,0 24.145634,45.828082,0 24.145654,45.828101,0 24.145672,45.828121,0 24.145687,45.828142,0 24.145700,45.828164,0 24.145710,45.828187,0 24.145717,45.828210,0 24.145721,45.828233,0 24.145722,45.828257,0</coordinates></LinearRing></outerBoundaryIs></Polygon></Placemark>
<Placemark><name>R30 FE4</name><styleUrl>#c30</styleUrl><Polygon><outerBoundaryIs><LinearRing><coordinates>24.146555,45.828404,0 24.146553,45.828428,0 24.146549,45.828451,0 24.146541,45.828474,0 24.146531,45.828496,0 24.146517,45.828518,0 24.146501,45.828539,0 24.146483,45.828558,0 24.146462,45.828577,0 24.146439,45.828594,0 24.146414,45.828610,0 24.146387,45.828624,0 24.146359,45.828636,0 24.146329,45.828647,0 24.146297,45.828656,0 24.146265,45.828663,0 24.146232,45.828667,0 24.146199,45.828670,0 24.146165,45.828671,0 24.146131,45.828670,0 24.146098,45.828666,0 24.146065,45.828661,0 24.146033,45.828654,0 24.146002,45.828645,0 24.145972,45.828633,0 24.145944,45.828621,0 24.145918,45.828606,0 24.145893,45.828590,0 24.145871,45.828572,0 24.145850,45.828554,0 24.145833,45.828534,0 24.145817,45.828513,0 24.145805,45.828491,0 24.145795,45.828468,0 24.145788,45.828445,0 24.145784,45.828422,0 24.145783,45.828398,0 24.145785,45.828375,0 24.145790,45.828351,0 24.145797,45.828328,0 24.145808,45.828306,0 24.145821,45.828284,0 24.145837,45.828264,0 24.145855,45.828244,0 24.145876,45.828225,0 24.145899,45.828208,0 24.145924,45.828192,0 24.145951,45.828178,0 24.145980,45.828166,0 24.146010,45.828155,0 24.146041,45.828146,0 24.146073,45.828140,0 24.146106,45.828135,0 24.146140,45.828132,0 24.146173,45.828131,0 24.146207,45.828132,0 24.146240,45.828136,0 24.146273,45.828141,0 24.146305,45.828148,0 24.146336,45.828158,0 24.146366,45.828169,0 24.146394,45.828182,0 24.146420,45.828196,0 24.146445,45.828212,0 24.146468,45.828230,0 24.146488,45.828249,0 24.146506,45.828269,0 24.146521,45.828290,0 24.146533,45.828312,0 24.146543,45.828334,0 24.146550,45.828357,0 24.146554,45.828380,0 24.146555,45.828404,0</coordinates></LinearRing></outerBoundaryIs></Polygon></Placemark>
<Placemark><name>R30 FE5</name><styleUrl>#c30</styleUrl><Polygon><outerBoundaryIs><LinearRing><coordinates>24.144930,45.828490,0 24.144928,45.828514,0 24.144923,45.828537,0 24.144916,45.828560,0 24.144905,45.828582,0 24.144892,45.828604,0 24.144876,45.828625,0 24.144858,45.828645,0 24.144837,45.828663,0 24.144814,45.828680,0 24.144789,45.828696,0 24.144762,45.828710,0 24.144733,45.828723,0 24.144703,45.828733,0 24.144672,45.828742,0 24.144640,45.828749,0 24.144607,45.828754,0 24.144573,45.828757,0 24.144540,45.828757,0 24.144506,45.828756,0 24.144473,45.828753,0 24.144440,45.828747,0 24.144408,45.828740,0 24.144377,45.828731,0 24.144347,45.828720,0 24.144319,45.828707,0 24.144292,45.828692,0 24.144268,45.828676,0 24.144245,45.828659,0 24.144225,45.828640,0 24.144207,45.828620,0 24.144192,45.828599,0 24.144179,45.828577,0 24.144170,45.828554,0 24.144163,45.828531,0 24.144159,45.828508,0 24.144158,45.828484,0 24.144159,45.828461,0 24.144164,45.828438,0 24.144172,45.828415,0 24.144182,45.828392,0 24.144195,45.828371,0 24.144211,45.828350,0 24.144230,45.828330,0 24.144251,45.828312,0 24.144274,45.828294,0 24.144299,45.828279,0 24.144326,45.828265,0 24.144354,45.828252,0 24.144384,45.828241,0 24.144416,45.828233,0 24.144448,45.828226,0 24.144481,45.828221,0 24.144514,45.828218,0 24.144548,45.828217,0 24.144581,45.828219,0 24.144615,45.828222,0 24.144648,45.828227,0 24.144680,45.828235,0 24.144711,45.828244,0 24.144740,45.828255,0 24.144769,45.828268,0 24.144795,45.828282,0 24.144820,45.828299,0 24.144842,45.828316,0 24.144862,45.828335,0 24.144880,45.828355,0 24.144895,45.828376,0 24.144908,45.828398,0 24.144918,45.828420,0 24.144925,45.828443,0 24.144929,45.828467,0 24.144930,45.828490,0</coordinates></LinearRing></outerBoundaryIs></Polygon></Placemark>
</Folder><Folder><name>CPT executate apr. 2025</name><visibility>0</visibility>
<Placemark><name>CPTA1</name><visibility>0</visibility><styleUrl>#ex</styleUrl><Point><coordinates>24.15099723265797,45.825880556502334,0</coordinates></Point></Placemark>
<Placemark><name>CPTA2</name><visibility>0</visibility><styleUrl>#ex</styleUrl><Point><coordinates>24.150272232658374,45.82601944539129,0</coordinates></Point></Placemark>
<Placemark><name>CPTA3</name><visibility>0</visibility><styleUrl>#ex</styleUrl><Point><coordinates>24.14964723265871,45.82611666761356,0</coordinates></Point></Placemark>
<Placemark><name>CPTA4</name><visibility>0</visibility><styleUrl>#ex</styleUrl><Point><coordinates>24.150830565991363,45.825513889835726,0</coordinates></Point></Placemark>
<Placemark><name>CPTA6</name><visibility>0</visibility><styleUrl>#ex</styleUrl><Point><coordinates>24.14956945488096,45.82583055650254,0</coordinates></Point></Placemark>
<Placemark><name>CPTA7</name><visibility>0</visibility><styleUrl>#ex</styleUrl><Point><coordinates>24.150680565991404,45.825138889835806,0</coordinates></Point></Placemark>
<Placemark><name>CPTA8</name><visibility>0</visibility><styleUrl>#ex</styleUrl><Point><coordinates>24.15007501043619,45.82527777872474,0</coordinates></Point></Placemark>
<Placemark><name>CPTA9</name><visibility>0</visibility><styleUrl>#ex</styleUrl><Point><coordinates>24.149363899325465,45.8253861120581,0</coordinates></Point></Placemark>
<Placemark><name>CPTB11</name><visibility>0</visibility><styleUrl>#ex</styleUrl><Point><coordinates>24.144280565995004,45.827211112058656,0</coordinates></Point></Placemark>
<Placemark><name>CPTB12</name><visibility>0</visibility><styleUrl>#ex</styleUrl><Point><coordinates>24.143572232662045,45.82734722316986,0</coordinates></Point></Placemark>
<Placemark><name>CPTB13</name><visibility>0</visibility><styleUrl>#ex</styleUrl><Point><coordinates>24.142875010440218,45.82751111205882,0</coordinates></Point></Placemark>
<Placemark><name>CPTB14</name><visibility>0</visibility><styleUrl>#ex</styleUrl><Point><coordinates>24.14409723266171,45.826669445392035,0</coordinates></Point></Placemark>
<Placemark><name>CPTB16</name><visibility>0</visibility><styleUrl>#ex</styleUrl><Point><coordinates>24.1426944548847,45.826936112058895,0</coordinates></Point></Placemark>
<Placemark><name>CPTB17</name><visibility>0</visibility><styleUrl>#ex</styleUrl><Point><coordinates>24.143952788217312,45.826233334281035,0</coordinates></Point></Placemark>
<Placemark><name>CPTB18</name><visibility>0</visibility><styleUrl>#ex</styleUrl><Point><coordinates>24.14327501043991,45.82635277872556,0</coordinates></Point></Placemark>
<Placemark><name>CPTB19</name><visibility>0</visibility><styleUrl>#ex</styleUrl><Point><coordinates>24.142600010440276,45.82642500094789,0</coordinates></Point></Placemark>
<Placemark><name>CPTB21</name><visibility>0</visibility><styleUrl>#ex</styleUrl><Point><coordinates>24.14631578643378,45.82770934567835,0</coordinates></Point></Placemark>
<Placemark><name>CPTB210</name><visibility>0</visibility><styleUrl>#ex</styleUrl><Point><coordinates>24.143572232662095,45.82786388983649,0</coordinates></Point></Placemark>
<Placemark><name>CPTB211</name><visibility>0</visibility><styleUrl>#ex</styleUrl><Point><coordinates>24.14363436742009,45.82841089989663,0</coordinates></Point></Placemark>
<Placemark><name>CPTB212</name><visibility>0</visibility><styleUrl>#ex</styleUrl><Point><coordinates>24.14371389932878,45.828972223169664,0</coordinates></Point></Placemark>
<Placemark><name>CPTB213</name><visibility>0</visibility><styleUrl>#ex</styleUrl><Point><coordinates>24.142691677107024,45.82798888983657,0</coordinates></Point></Placemark>
<Placemark><name>CPTB214</name><visibility>0</visibility><styleUrl>#ex</styleUrl><Point><coordinates>24.142688899329286,45.82844722316985,0</coordinates></Point></Placemark>
<Placemark><name>CPTB215</name><visibility>0</visibility><styleUrl>#ex</styleUrl><Point><coordinates>24.142776593273204,45.82900000094759,0</coordinates></Point></Placemark>
<Placemark><name>CPTB22</name><visibility>0</visibility><styleUrl>#ex</styleUrl><Point><coordinates>24.146379433879538,45.82825391834929,0</coordinates></Point></Placemark>
<Placemark><name>CPTB23</name><visibility>0</visibility><styleUrl>#ex</styleUrl><Point><coordinates>24.14644533060294,45.82875988074848,0</coordinates></Point></Placemark>
<Placemark><name>CPTB24</name><visibility>0</visibility><styleUrl>#ex</styleUrl><Point><coordinates>24.14534829259702,45.82777136761606,0</coordinates></Point></Placemark>
<Placemark><name>CPTB26</name><visibility>0</visibility><styleUrl>#ex</styleUrl><Point><coordinates>24.14543334377229,45.8288000009472,0</coordinates></Point></Placemark>
<Placemark><name>CPTB27</name><visibility>0</visibility><styleUrl>#ex</styleUrl><Point><coordinates>24.144453353161285,45.827826572655376,0</coordinates></Point></Placemark>
<Placemark><name>CPTBN29</name><visibility>0</visibility><styleUrl>#ex</styleUrl><Point><coordinates>24.14461389932829,45.828855556502866,0</coordinates></Point></Placemark>
<Placemark><name>CPTC1</name><visibility>0</visibility><styleUrl>#ex</styleUrl><Point><coordinates>24.146616677104856,45.82702777872498,0</coordinates></Point></Placemark>
<Placemark><name>CPTC2</name><visibility>0</visibility><styleUrl>#ex</styleUrl><Point><coordinates>24.14589167710526,45.827225000947344,0</coordinates></Point></Placemark>
<Placemark><name>CPTC3</name><visibility>0</visibility><styleUrl>#ex</styleUrl><Point><coordinates>24.145197232661182,45.82732222316964,0</coordinates></Point></Placemark>
<Placemark><name>CPTC6</name><visibility>0</visibility><styleUrl>#ex</styleUrl><Point><coordinates>24.144991677105693,45.82676666761418,0</coordinates></Point></Placemark>
<Placemark><name>CPTC8</name><visibility>0</visibility><styleUrl>#ex</styleUrl><Point><coordinates>24.14542501043873,45.82608638983637,0</coordinates></Point></Placemark>
<Placemark><name>CPTC9</name><visibility>0</visibility><styleUrl>#ex</styleUrl><Point><coordinates>24.144741677105777,45.82617500094762,0</coordinates></Point></Placemark>
<Placemark><name>CPTUA5</name><visibility>0</visibility><styleUrl>#ex</styleUrl><Point><coordinates>24.15013858092917,45.82563843673246,0</coordinates></Point></Placemark>
<Placemark><name>CPTUB15</name><visibility>0</visibility><styleUrl>#ex</styleUrl><Point><coordinates>24.143384453689176,45.82684234756546,0</coordinates></Point></Placemark>
<Placemark><name>CPTUB25</name><visibility>0</visibility><styleUrl>#ex</styleUrl><Point><coordinates>24.145399795589057,45.828299648394946,0</coordinates></Point></Placemark>
<Placemark><name>CPTUB28</name><visibility>0</visibility><styleUrl>#ex</styleUrl><Point><coordinates>24.144522999498065,45.82835202299675,0</coordinates></Point></Placemark>
<Placemark><name>CPTUC5</name><visibility>0</visibility><styleUrl>#ex</styleUrl><Point><coordinates>24.145700863124993,45.826644504267385,0</coordinates></Point></Placemark>
</Folder></Document></kml>